OBJECT_NAME,OBJECT_ID,EPOCH,MEAN_MOTION,ECCENTRICITY,INCLINATION,RA_OF_ASC_NODE,ARG_OF_PERICENTER,MEAN_ANOMALY,EPHEMERIS_TYPE,CLASSIFICATION_TYPE,NORAD_CAT_ID,ELEMENT_SET_NO,REV_AT_EPOCH,BSTAR,MEAN_MOTION_DOT,MEAN_MOTION_DDOT
MANDRAKE 2 ABLE,2021-059AE,2026-05-09T11:28:55.615008,15.53452313,.0006226,97.7051,316.3591,127.3149,232.8671,0,U,48907,999,27111,.28785E-3,.18167E-3,0
MANDRAKE 2 BAKER,2021-059AF,2026-05-09T12:26:26.564928,15.57639431,.0004797,97.7030,319.0163,124.5536,235.6172,0,U,48908,999,27127,.26133E-3,.19226E-3,0
PACE-1,2021-059AG,2026-05-09T12:04:13.305792,15.74100555,.0003066,97.6807,323.4684,109.3041,250.8554,0,U,48909,999,27170,.36337E-3,.51911E-3,0
YAM-3,2021-059AN,2026-05-09T11:29:19.718880,15.47705824,.0006386,97.7004,313.9322,128.3131,231.8693,0,U,48915,999,27100,.19112E-3,.9794E-4,0
FARADAY_PHOENIX,2021-059AX,2026-05-09T11:52:10.149888,15.70170743,.0005344,97.6862,323.4977,122.0108,238.1674,0,U,48924,999,27157,.55548E-3,.6747E-3,0
DEMO8 (TENZING),2021-059CA,2026-05-09T11:35:02.450400,15.53537420,.0008285,97.7052,319.9993,123.3856,236.8190,0,U,48951,999,27129,.24185E-3,.15298E-3,0
NAPA-2,2021-059CN,2026-05-09T13:44:39.437952,15.84206235,.0002619,97.6788,323.7182,131.1308,229.0187,0,U,48963,999,27167,.50464E-3,.114509E-2,0
FENGYUN 3E,2021-062A,2026-05-09T12:22:01.597728,14.19900354,.000152,98.7506,133.3548,154.4318,205.6933,0,U,49008,999,25109,-.20674E-4,-.88E-6,0
ISS (NAUKA),2021-066A,2026-05-09T11:44:56.952384,15.49160212,.0007444,51.6310,131.6570,40.3197,319.8342,0,U,49044,999,56589,.12956E-3,.6736E-4,0
STARLINK-3100,2021-082Q,2026-05-09T10:52:20.413056,14.98329089,.0003915,69.9986,141.2405,267.5393,92.5318,0,U,49144,999,25508,.45192E-4,.446E-5,0
CUTE,2021-088D,2026-05-09T05:29:25.308960,15.77550509,.0000945,97.4197,225.2611,283.7729,76.3431,0,U,49263,999,25638,.97523E-3,.164275E-2,0
2021-091B,2021-091B,2026-05-09T12:13:17.407200,15.18358486,.0013568,97.4490,317.6778,168.6184,191.5359,0,U,49316,999,25311,.15237E-3,.3069E-4,0
SDGSAT 1,2021-100A,2026-05-09T12:24:57.043296,15.19732482,.0009785,97.2666,177.8984,72.7239,287.5066,0,U,49387,999,25004,.14022E-3,.2934E-4,0
TEIKYOSAT-4 (OORURI),2021-102B,2026-05-09T08:09:25.498944,15.09369567,.0013651,97.3702,160.3317,70.1343,290.1356,0,U,49396,999,24686,.88591E-4,.1356E-4,0
Z-SAT,2021-102E,2026-05-09T12:09:43.276032,15.17974790,.0017405,97.3359,166.0062,27.9948,332.2219,0,U,49399,999,24757,.23293E-3,.4684E-4,0
HIBARI,2021-102F,2026-05-09T03:00:14.347584,15.30953410,.001079,97.3271,175.4912,348.2672,11.8316,0,U,49400,999,24821,.32275E-3,.9595E-4,0
KOSEN-1,2021-102H,2026-05-09T12:47:32.369856,15.26305391,.0013162,97.3223,172.4508,351.9462,8.1563,0,U,49402,999,24812,.21703E-3,.5573E-4,0
GLOBAL-14,2021-106A,2026-05-09T11:30:49.298400,15.48799493,.0013776,42.0034,160.7769,117.0828,243.1422,0,U,49469,999,25212,.31331E-3,.17059E-3,0
GAOFEN-3 02,2021-109A,2026-05-09T13:03:29.153088,14.42212725,.0003941,98.4106,138.1889,98.4392,261.7245,0,U,49495,999,23474,.76449E-4,.208E-5,0
GLOBAL-12,2021-115BA,2026-05-09T12:15:47.496960,15.51535175,.0001843,53.1950,230.1844,309.8547,50.2301,0,U,49772,999,24989,.39668E-3,.23486E-3,0
GLOBAL-13,2021-115BB,2026-05-09T12:11:51.740736,15.44698422,.0002865,53.1971,238.2491,18.9207,341.1906,0,U,49773,999,24978,.32955E-3,.15231E-3,0
GLOBAL-17,2021-120A,2026-05-09T11:00:11.750976,15.50362131,.0013522,41.9956,279.7146,336.6396,23.3832,0,U,49949,999,24888,.39157E-3,.22642E-3,0
GLOBAL-16,2021-120B,2026-05-09T10:08:10.226112,15.48467555,.0011829,41.9959,282.9729,326.2924,33.7166,0,U,49950,999,24883,.39727E-3,.21453E-3,0
XW-3 (CAS-9),2021-131B,2026-05-09T12:38:02.770080,14.41320138,.0003606,98.4953,222.1297,197.9889,162.1173,0,U,50466,999,22954,.12273E-3,.353E-5,0
ION SCV-004,2022-002K,2026-05-09T03:08:08.178144,15.30061643,.0008889,97.2859,187.5291,126.5099,233.6962,0,U,50993,999,23932,.1591E-3,.4559E-4,0
ETV-A1,2022-002CE,2026-05-09T11:43:13.273248,15.39876782,.0006762,97.2895,195.9255,119.7117,240.4803,0,U,51060,999,23988,.22726E-3,.8955E-4,0
BRO-5,2022-002CF,2026-05-09T11:41:02.348736,15.45401379,.0006549,97.3009,202.8748,109.4851,250.7106,0,U,51061,999,24027,.2644E-3,.12561E-3,0
LUDI TANCE 1-01A (L-SAR 01A),2022-007A,2026-05-09T12:36:56.838240,14.88410287,.0001602,97.8093,137.4968,91.6211,268.5190,0,U,51284,999,23272,.47218E-4,.383E-5,0
LUDI TANCE 1-01B (L-SAR 01B),2022-018A,2026-05-09T13:25:20.027712,14.88411372,.0001594,97.8100,137.5252,91.8958,268.2441,0,U,51822,999,22796,.54362E-4,.45E-5,0
