MANDRAKE 2 ABLE         
1 48907U 21059AE  26129.47842147  .00018167  00000+0  28785-3 0  9997
2 48907  97.7051 316.3591 0006226 127.3149 232.8671 15.53452313271113
MANDRAKE 2 BAKER        
1 48908U 21059AF  26129.51836302  .00019226  00000+0  26133-3 0  9991
2 48908  97.7030 319.0163 0004797 124.5536 235.6172 15.57639431271272
PACE-1                  
1 48909U 21059AG  26129.50293178  .00051911  00000+0  36337-3 0  9993
2 48909  97.6807 323.4684 0003066 109.3041 250.8554 15.74100555271701
YAM-3                   
1 48915U 21059AN  26129.47870045  .00009794  00000+0  19112-3 0  9994
2 48915  97.7004 313.9322 0006386 128.3131 231.8693 15.47705824271006
FARADAY_PHOENIX         
1 48924U 21059AX  26129.49456192  .00067470  00000+0  55548-3 0  9997
2 48924  97.6862 323.4977 0005344 122.0108 238.1674 15.70170743271570
DEMO8 (TENZING)         
1 48951U 21059CA  26129.48266725  .00015298  00000+0  24185-3 0  9991
2 48951  97.7052 319.9993 0008285 123.3856 236.8190 15.53537420271298
NAPA-2                  
1 48963U 21059CN  26129.57267868  .00114509  00000+0  50464-3 0  9997
2 48963  97.6788 323.7182 0002619 131.1308 229.0187 15.84206235271676
FENGYUN 3E              
1 49008U 21062A   26129.51529627 -.00000088  00000+0 -20674-4 0  9999
2 49008  98.7506 133.3548 0001520 154.4318 205.6933 14.19900354251090
ISS (NAUKA)             
1 49044U 21066A   26129.48954806  .00006736  00000+0  12956-3 0  9997
2 49044  51.6310 131.6570 0007444  40.3197 319.8342 15.49160212565899
STARLINK-3100           
1 49144U 21082Q   26129.45301404  .00000446  00000+0  45192-4 0  9994
2 49144  69.9986 141.2405 0003915 267.5393  92.5318 14.98329089255082
CUTE                    
1 49263U 21088D   26129.22876516  .00164275  00000+0  97523-3 0  9993
2 49263  97.4197 225.2611 0000944 283.7729  76.3431 15.77550509256389
2021-091B               
1 49316U 21091B   26129.50922925  .00003069  00000+0  15237-3 0  9998
2 49316  97.4490 317.6778 0013568 168.6184 191.5359 15.18358486253118
SDGSAT 1                
1 49387U 21100A   26129.51732689  .00002934  00000+0  14022-3 0  9995
2 49387  97.2666 177.8984 0009785  72.7239 287.5066 15.19732482250049
TEIKYOSAT-4 (OORURI)    
1 49396U 21102B   26129.33987846  .00001356  00000+0  88591-4 0  9994
2 49396  97.3702 160.3317 0013651  70.1343 290.1356 15.09369567246869
Z-SAT                   
1 49399U 21102E   26129.50675088  .00004684  00000+0  23293-3 0  9992
2 49399  97.3359 166.0062 0017405  27.9948 332.2219 15.17974790247576
HIBARI                  
1 49400U 21102F   26129.12516607  .00009595  00000+0  32275-3 0  9990
2 49400  97.3271 175.4912 0010790 348.2672  11.8316 15.30953410248214
KOSEN-1                 
1 49402U 21102H   26129.53301354  .00005573  00000+0  21703-3 0  9994
2 49402  97.3223 172.4508 0013162 351.9462   8.1563 15.26305391248122
GLOBAL-14               
1 49469U 21106A   26129.47973725  .00017059  00000+0  31331-3 0  9991
2 49469  42.0034 160.7769 0013776 117.0828 243.1422 15.48799493252123
GAOFEN-3 02             
1 49495U 21109A   26129.54408742  .00000208  00000+0  76449-4 0  9991
2 49495  98.4106 138.1889 0003941  98.4392 261.7245 14.42212725234748
GLOBAL-12               
1 49772U 21115BA  26129.51096640  .00023486  00000+0  39668-3 0  9997
2 49772  53.1950 230.1844 0001843 309.8547  50.2301 15.51535175249899
GLOBAL-13               
1 49773U 21115BB  26129.50823774  .00015231  00000+0  32955-3 0  9994
2 49773  53.1971 238.2491 0002865  18.9207 341.1906 15.44698422249784
GLOBAL-17               
1 49949U 21120A   26129.45846934  .00022642  00000+0  39157-3 0  9997
2 49949  41.9956 279.7146 0013522 336.6396  23.3832 15.50362131248884
GLOBAL-16               
1 49950U 21120B   26129.42234058  .00021453  00000+0  39727-3 0  9996
2 49950  41.9959 282.9729 0011829 326.2924  33.7166 15.48467555248835
XW-3 (CAS-9)            
1 50466U 21131B   26129.52642095  .00000353  00000+0  12273-3 0  9990
2 50466  98.4953 222.1297 0003606 197.9889 162.1173 14.41320138229542
ION SCV-004             
1 50993U 22002K   26129.13065021  .00004559  00000+0  15910-3 0  9991
2 50993  97.2859 187.5291 0008889 126.5099 233.6962 15.30061643239325
ETV-A1                  
1 51060U 22002CE  26129.48834807  .00008955  00000+0  22726-3 0  9998
2 51060  97.2895 195.9255 0006762 119.7117 240.4803 15.39876782239885
BRO-5                   
1 51061U 22002CF  26129.48683274  .00012561  00000+0  26440-3 0  9994
2 51061  97.3009 202.8748 0006549 109.4851 250.7106 15.45401379240271
LUDI TANCE 1-01A (L-SA*)
1 51284U 22007A   26129.52565785  .00000383  00000+0  47218-4 0  9993
2 51284  97.8093 137.4968 0001602  91.6211 268.5190 14.88410287232725
LUDI TANCE 1-01B (L-SA*)
1 51822U 22018A   26129.55925958  .00000450  00000+0  54362-4 0  9991
2 51822  97.8100 137.5252 0001594  91.8958 268.2441 14.88411372227961
